OBJECT B                
1 51825U 22019B   25054.80930408  .00029505  00000+0  88367-3 0  9998
2 51825  97.3978 130.7642 0012147  72.5988 287.6582 15.34400285165645
